[
    {
        "Altitude(m)": 702793.1768740892,
        "Argument of Periapsis(deg)": 0.009112096949301655,
        "Eccentricity": 0.0,
        "Inclination(deg)": 45.0,
        "Latitude(deg)": 16.40796003037232,
        "Longitude(deg)": -42.643762298162,
        "Mean Anomaly(deg)": -203.5007266820153,
        "RAAN(deg)": 254.99139844683344,
        "Satellite Name": "Constellation 1 1131",
        "Satellite Number": 1131,
        "Semi-Major Axis(m)": 7083131.272910544,
        "Time(s)": 152
    },
    {
        "Altitude(m)": 702791.2351758439,
        "Argument of Periapsis(deg)": 0.009172044955547059,
        "Eccentricity": 0.0,
        "Inclination(deg)": 45.0,
        "Latitude(deg)": 16.366650871458013,
        "Longitude(deg)": -42.60131490675198,
        "Mean Anomaly(deg)": -203.44002554176546,
        "RAAN(deg)": 254.9913418576679,
        "Satellite Name": "Constellation 1 1131",
        "Satellite Number": 1131,
        "Semi-Major Axis(m)": 7083131.272910544,
        "Time(s)": 153
    },
    {
        "Altitude(m)": 702789.3099713894,
        "Argument of Periapsis(deg)": 0.009231992961792466,
        "Eccentricity": 0.0,
        "Inclination(deg)": 45.0,
        "Latitude(deg)": 16.32533129270895,
        "Longitude(deg)": -42.55888712361059,
        "Mean Anomaly(deg)": -203.3793244015155,
        "RAAN(deg)": 254.99128526850228,
        "Satellite Name": "Constellation 1 1131",
        "Satellite Number": 1131,
        "Semi-Major Axis(m)": 7083131.272910544,
        "Time(s)": 154
    },
    {
        "Altitude(m)": 702787.4012869068,
        "Argument of Periapsis(deg)": 0.009291940968037872,
        "Eccentricity": 0.0,
        "Inclination(deg)": 45.0,
        "Latitude(deg)": 16.28400132619747,
        "Longitude(deg)": -42.51647889326479,
        "Mean Anomaly(deg)": -203.31862326126569,
        "RAAN(deg)": 254.99122867933673,
        "Satellite Name": "Constellation 1 1131",
        "Satellite Number": 1131,
        "Semi-Major Axis(m)": 7083131.272910544,
        "Time(s)": 155
    },
    {
        "Altitude(m)": 702785.5091485376,
        "Argument of Periapsis(deg)": 0.009351888974283276,
        "Eccentricity": 0.0,
        "Inclination(deg)": 45.0,
        "Latitude(deg)": 16.2426610039568,
        "Longitude(deg)": -42.47409032836918,
        "Mean Anomaly(deg)": -203.25792212101578,
        "RAAN(deg)": 254.99117209017118,
        "Satellite Name": "Constellation 1 1131",
        "Satellite Number": 1131,
        "Semi-Major Axis(m)": 7083131.272910544,
        "Time(s)": 156
    },
    {
        "Altitude(m)": 702783.6335823333,
        "Argument of Periapsis(deg)": 0.00941183698052868,
        "Eccentricity": 0.0,
        "Inclination(deg)": 45.0,
        "Latitude(deg)": 16.201310357983033,
        "Longitude(deg)": -42.43172103731886,
        "Mean Anomaly(deg)": -203.19722098076585,
        "RAAN(deg)": 254.99111550100562,
        "Satellite Name": "Constellation 1 1131",
        "Satellite Number": 1131,
        "Semi-Major Axis(m)": 7083131.272910544,
        "Time(s)": 157
    },
    {
        "Altitude(m)": 702781.7746142946,
        "Argument of Periapsis(deg)": 0.009471784986774088,
        "Eccentricity": 0.0,
        "Inclination(deg)": 45.0,
        "Latitude(deg)": 16.159949420233293,
        "Longitude(deg)": -42.389371132830746,
        "Mean Anomaly(deg)": -203.13651984051597,
        "RAAN(deg)": 254.99105891184,
        "Satellite Name": "Constellation 1 1131",
        "Satellite Number": 1131,
        "Semi-Major Axis(m)": 7083131.272910544,
        "Time(s)": 158
    },
    {
        "Altitude(m)": 702779.9322703436,
        "Argument of Periapsis(deg)": 0.009531732993019492,
        "Eccentricity": 0.0,
        "Inclination(deg)": 45.0,
        "Latitude(deg)": 16.118578222626866,
        "Longitude(deg)": -42.347040559555495,
        "Mean Anomaly(deg)": -203.07581870026604,
        "RAAN(deg)": 254.99100232267443,
        "Satellite Name": "Constellation 1 1131",
        "Satellite Number": 1131,
        "Semi-Major Axis(m)": 7083131.272910544,
        "Time(s)": 159
    },
    {
        "Altitude(m)": 702778.1065763411,
        "Argument of Periapsis(deg)": 0.009591680999264898,
        "Eccentricity": 0.0,
        "Inclination(deg)": 45.0,
        "Latitude(deg)": 16.077196797045332,
        "Longitude(deg)": -42.30472926217528,
        "Mean Anomaly(deg)": -203.01511756001617,
        "RAAN(deg)": 254.99094573350888,
        "Satellite Name": "Constellation 1 1131",
        "Satellite Number": 1131,
        "Semi-Major Axis(m)": 7083131.272910544,
        "Time(s)": 160
    },
    {
        "Altitude(m)": 702776.2975580831,
        "Argument of Periapsis(deg)": 0.009651629005510304,
        "Eccentricity": 0.0,
        "Inclination(deg)": 45.0,
        "Latitude(deg)": 16.035805175332317,
        "Longitude(deg)": -42.262437185402874,
        "Mean Anomaly(deg)": -202.95441641976623,
        "RAAN(deg)": 254.99088914434333,
        "Satellite Name": "Constellation 1 1131",
        "Satellite Number": 1131,
        "Semi-Major Axis(m)": 7083131.272910544,
        "Time(s)": 161
    },
    {
        "Altitude(m)": 702774.5052412907,
        "Argument of Periapsis(deg)": 0.00971157701175571,
        "Eccentricity": 0.0,
        "Inclination(deg)": 45.0,
        "Latitude(deg)": 15.994403389293932,
        "Longitude(deg)": -42.22016427398239,
        "Mean Anomaly(deg)": -202.89371527951636,
        "RAAN(deg)": 254.99083255517778,
        "Satellite Name": "Constellation 1 1131",
        "Satellite Number": 1131,
        "Semi-Major Axis(m)": 7083131.272910544,
        "Time(s)": 162
    },
    {
        "Altitude(m)": 702772.7296516213,
        "Argument of Periapsis(deg)": 0.009771525018001118,
        "Eccentricity": 0.0,
        "Inclination(deg)": 45.0,
        "Latitude(deg)": 15.952991470698322,
        "Longitude(deg)": -42.177910640785576,
        "Mean Anomaly(deg)": -202.83301413926645,
        "RAAN(deg)": 254.99077596601217,
        "Satellite Name": "Constellation 1 1131",
        "Satellite Number": 1131,
        "Semi-Major Axis(m)": 7083131.272910544,
        "Time(s)": 163
    },
    {
        "Altitude(m)": 702770.9708146671,
        "Argument of Periapsis(deg)": 0.00983147302424652,
        "Eccentricity": 0.0,
        "Inclination(deg)": 45.0,
        "Latitude(deg)": 15.911569451276996,
        "Longitude(deg)": -42.13567589442441,
        "Mean Anomaly(deg)": -202.77231299901658,
        "RAAN(deg)": 254.9907193768466,
        "Satellite Name": "Constellation 1 1131",
        "Satellite Number": 1131,
        "Semi-Major Axis(m)": 7083131.272910544,
        "Time(s)": 164
    },
    {
        "Altitude(m)": 702769.2287559474,
        "Argument of Periapsis(deg)": 0.009891421030491928,
        "Eccentricity": 0.0,
        "Inclination(deg)": 45.0,
        "Latitude(deg)": 15.870137362723387,
        "Longitude(deg)": -42.09346014783257,
        "Mean Anomaly(deg)": -202.71161185876664,
        "RAAN(deg)": 254.99066278768106,
        "Satellite Name": "Constellation 1 1131",
        "Satellite Number": 1131,
        "Semi-Major Axis(m)": 7083131.272910544,
        "Time(s)": 165
    },
    {
        "Altitude(m)": 702767.5035009173,
        "Argument of Periapsis(deg)": 0.009951369036737332,
        "Eccentricity": 0.0,
        "Inclination(deg)": 45.0,
        "Latitude(deg)": 15.828695236693964,
        "Longitude(deg)": -42.05126334587784,
        "Mean Anomaly(deg)": -202.6509107185168,
        "RAAN(deg)": 254.99060619851548,
        "Satellite Name": "Constellation 1 1131",
        "Satellite Number": 1131,
        "Semi-Major Axis(m)": 7083131.272910544,
        "Time(s)": 166
    },
    {
        "Altitude(m)": 702765.7950749579,
        "Argument of Periapsis(deg)": 0.010011317042982738,
        "Eccentricity": 0.0,
        "Inclination(deg)": 45.0,
        "Latitude(deg)": 15.787243104808143,
        "Longitude(deg)": -42.00908543345897,
        "Mean Anomaly(deg)": -202.59020957826687,
        "RAAN(deg)": 254.99054960934993,
        "Satellite Name": "Constellation 1 1131",
        "Satellite Number": 1131,
        "Semi-Major Axis(m)": 7083131.272910544,
        "Time(s)": 167
    },
    {
        "Altitude(m)": 702764.1035033895,
        "Argument of Periapsis(deg)": 0.010071265049228144,
        "Eccentricity": 0.0,
        "Inclination(deg)": 45.0,
        "Latitude(deg)": 15.745780998648275,
        "Longitude(deg)": -41.9669263555055,
        "Mean Anomaly(deg)": -202.52950843801696,
        "RAAN(deg)": 254.99049302018432,
        "Satellite Name": "Constellation 1 1131",
        "Satellite Number": 1131,
        "Semi-Major Axis(m)": 7083131.272910544,
        "Time(s)": 168
    },
    {
        "Altitude(m)": 702762.4288114604,
        "Argument of Periapsis(deg)": 0.01013121305547355,
        "Eccentricity": 0.0,
        "Inclination(deg)": 45.0,
        "Latitude(deg)": 15.704308949759811,
        "Longitude(deg)": -41.92478605697786,
        "Mean Anomaly(deg)": -202.46880729776706,
        "RAAN(deg)": 254.99043643101876,
        "Satellite Name": "Constellation 1 1131",
        "Satellite Number": 1131,
        "Semi-Major Axis(m)": 7083131.272910544,
        "Time(s)": 169
    },
    {
        "Altitude(m)": 702760.7710243484,
        "Argument of Periapsis(deg)": 0.010191161061718957,
        "Eccentricity": 0.0,
        "Inclination(deg)": 45.0,
        "Latitude(deg)": 15.662826989651487,
        "Longitude(deg)": -41.88266448286738,
        "Mean Anomaly(deg)": -202.40810615751718,
        "RAAN(deg)": 254.9903798418532,
        "Satellite Name": "Constellation 1 1131",
        "Satellite Number": 1131,
        "Semi-Major Axis(m)": 7083131.272910544,
        "Time(s)": 170
    }
]